<?xml version="1.0" encoding="UTF-8"?>
<gpx creator="https://gpx.studio" version="1.1" xmlns="http://www.topografix.com/GPX/1/1" xmlns:xsi="http://www.w3.org/2001/XMLSchema-instance" xsi:schemaLocation="http://www.topografix.com/GPX/1/1 http://www.topografix.com/GPX/1/1/gpx.xsd http://www.garmin.com/xmlschemas/GpxExtensions/v3 http://www.garmin.com/xmlschemas/GpxExtensionsv3.xsd http://www.garmin.com/xmlschemas/TrackPointExtension/v1 http://www.garmin.com/xmlschemas/TrackPointExtensionv1.xsd http://www.garmin.com/xmlschemas/PowerExtension/v1 http://www.garmin.com/xmlschemas/PowerExtensionv1.xsd http://www.topografix.com/GPX/gpx_style/0/2 http://www.topografix.com/GPX/gpx_style/0/2/gpx_style.xsd" xmlns:gpxtpx="http://www.garmin.com/xmlschemas/TrackPointExtension/v1" xmlns:gpxx="http://www.garmin.com/xmlschemas/GpxExtensions/v3" xmlns:gpxpx="http://www.garmin.com/xmlschemas/PowerExtension/v1" xmlns:gpx_style="http://www.topografix.com/GPX/gpx_style/0/2">
  <metadata>
    <name>New file 1</name>
    <author>
      <name>gpx.studio</name>
      <link href="https://gpx.studio"/>
    </author>
  </metadata>
  <trk>
    <name>New file 1</name>
    <trkseg>
      <trkpt lat="22.259683433623152" lon="114.19200661557488">
        <ele>185.19723492352222</ele>
      </trkpt>
      <trkpt lat="22.259637206291586" lon="114.19199163064883">
        <ele>186.87976031744915</ele>
      </trkpt>
      <trkpt lat="22.259637206291586" lon="114.19199163064883">
        <ele>186.87976031744915</ele>
      </trkpt>
      <trkpt lat="22.259544751584357" lon="114.19191670601816">
        <ele>192.2204606787357</ele>
      </trkpt>
      <trkpt lat="22.259498524206975" lon="114.19185676631372">
        <ele>195.686166492145</ele>
      </trkpt>
      <trkpt lat="22.259461542294787" lon="114.19180182158459">
        <ele>198.76709634587667</ele>
      </trkpt>
      <trkpt lat="22.25941993763189" lon="114.19175686680438">
        <ele>201.74166087510247</ele>
      </trkpt>
      <trkpt lat="22.259378332956615" lon="114.19172190197668">
        <ele>204.42939036602257</ele>
      </trkpt>
      <trkpt lat="22.259341351011784" lon="114.19169692709988">
        <ele>206.29731978310565</ele>
      </trkpt>
      <trkpt lat="22.259290500822928" lon="114.19165696729686">
        <ele>208.96373597334008</ele>
      </trkpt>
      <trkpt lat="22.25927200984053" lon="114.19161700749385">
        <ele>210.60002505258188</ele>
      </trkpt>
      <trkpt lat="22.25927200984053" lon="114.19157205271551">
        <ele>211.81128351581089</ele>
      </trkpt>
      <trkpt lat="22.259295123567355" lon="114.19149712809133">
        <ele>212.9455933100058</ele>
      </trkpt>
      <trkpt lat="22.259308991802044" lon="114.19147714818979">
        <ele>213.0438891147621</ele>
      </trkpt>
      <trkpt lat="22.259308991802044" lon="114.19147714818979">
        <ele>213.0438891147621</ele>
      </trkpt>
      <trkpt lat="22.25931823729107" lon="114.1913872386312">
        <ele>214.92386692297524</ele>
      </trkpt>
      <trkpt lat="22.259295123567355" lon="114.19131730897595">
        <ele>217.46103448578015</ele>
      </trkpt>
      <trkpt lat="22.259281255331246" lon="114.19127734917294">
        <ele>218.874386123597</ele>
      </trkpt>
      <trkpt lat="22.259281255331246" lon="114.19119742956701">
        <ele>221.28800532957587</ele>
      </trkpt>
      <trkpt lat="22.259281255331246" lon="114.19119742956701">
        <ele>221.28800532957587</ele>
      </trkpt>
      <trkpt lat="22.25934135101099" lon="114.19113748986058">
        <ele>222.9325431807126</ele>
      </trkpt>
      <trkpt lat="22.25938295569817" lon="114.19107755015608">
        <ele>224.89776078286351</ele>
      </trkpt>
      <trkpt lat="22.259364464727128" lon="114.19101761045164">
        <ele>227.46527368500475</ele>
      </trkpt>
      <trkpt lat="22.25934597375455" lon="114.19099763055016">
        <ele>228.41924078494696</ele>
      </trkpt>
      <trkpt lat="22.259332105522475" lon="114.19081156771892">
        <ele>235.80651372455299</ele>
      </trkpt>
      <trkpt lat="22.259336728266348" lon="114.19076661294054">
        <ele>237.49085342476042</ele>
      </trkpt>
      <trkpt lat="22.259266064453925" lon="114.19073093353808">
        <ele>239.94013184016035</ele>
      </trkpt>
      <trkpt lat="22.259229082480346" lon="114.19072094358734">
        <ele>240.84663495287532</ele>
      </trkpt>
      <trkpt lat="22.259229082480346" lon="114.19072094358734">
        <ele>240.84663495287532</ele>
      </trkpt>
      <trkpt lat="22.259095022743068" lon="114.19062104408175">
        <ele>244.5269668960117</ele>
      </trkpt>
      <trkpt lat="22.259110161637736" lon="114.19047102921354">
        <ele>250.40824129389435</ele>
      </trkpt>
      <trkpt lat="22.25914252089268" lon="114.19042107945972">
        <ele>252.39857669262705</ele>
      </trkpt>
      <trkpt lat="22.259179502889126" lon="114.1903861146302">
        <ele>254.02354841506354</ele>
      </trkpt>
      <trkpt lat="22.259262712346228" lon="114.19031618497422">
        <ele>256.98871375154266</ele>
      </trkpt>
      <trkpt lat="22.25932630744778" lon="114.19018617577137">
        <ele>262.15458696042845</ele>
      </trkpt>
      <trkpt lat="22.25932630744778" lon="114.19012124109156">
        <ele>264.1250165838286</ele>
      </trkpt>
      <trkpt lat="22.259349421167258" lon="114.19004631646095">
        <ele>266.941452450478</ele>
      </trkpt>
      <trkpt lat="22.259367912139396" lon="114.18999137173182">
        <ele>268.99910749540084</ele>
      </trkpt>
      <trkpt lat="22.25940951681777" lon="114.18993143202732">
        <ele>271.2240577855382</ele>
      </trkpt>
      <trkpt lat="22.259460366963395" lon="114.18991145212584">
        <ele>272.84910034116433</ele>
      </trkpt>
      <trkpt lat="22.259548619230316" lon="114.1898764296493">
        <ele>276.1226563885812</ele>
      </trkpt>
      <trkpt lat="22.259560059148058" lon="114.18990577757279">
        <ele>275.17976040958865</ele>
      </trkpt>
      <trkpt lat="22.259597041034212" lon="114.18985083284372">
        <ele>276.9376809163847</ele>
      </trkpt>
      <trkpt lat="22.25962940017658" lon="114.18976092328501">
        <ele>279.1094650377109</ele>
      </trkpt>
      <trkpt lat="22.259657136578397" lon="114.18970098358051">
        <ele>280.8945484259596</ele>
      </trkpt>
      <trkpt lat="22.25969874117169" lon="114.18967101372829">
        <ele>282.5294047952965</ele>
      </trkpt>
      <trkpt lat="22.25969874117169" lon="114.18967101372829">
        <ele>282.5294047952965</ele>
      </trkpt>
      <trkpt lat="22.25974959121227" lon="114.1895910941223">
        <ele>284.0853509769859</ele>
      </trkpt>
      <trkpt lat="22.259791195777183" lon="114.18956112427009">
        <ele>284.6165228551978</ele>
      </trkpt>
      <trkpt lat="22.259791195777183" lon="114.18956112427009">
        <ele>284.6165228551978</ele>
      </trkpt>
      <trkpt lat="22.259851291238263" lon="114.18941127500818">
        <ele>288.24027092941634</ele>
      </trkpt>
      <trkpt lat="22.259902141223435" lon="114.18932136545146">
        <ele>290.0221218178824</ele>
      </trkpt>
      <trkpt lat="22.259906763948408" lon="114.18925143579611">
        <ele>291.69440006364744</ele>
      </trkpt>
      <trkpt lat="22.259892895772936" lon="114.18914154633603">
        <ele>294.5151293520555</ele>
      </trkpt>
      <trkpt lat="22.259869782144065" lon="114.18910158653307">
        <ele>295.7057743472411</ele>
      </trkpt>
      <trkpt lat="22.259883650320916" lon="114.18899973227485">
        <ele>298.3717008297684</ele>
      </trkpt>
      <trkpt lat="22.25989751849731" lon="114.18892480764237">
        <ele>300.3776725649692</ele>
      </trkpt>
      <trkpt lat="22.25990214122247" lon="114.1888598729625">
        <ele>302.12526992307005</ele>
      </trkpt>
      <trkpt lat="22.259893689547326" lon="114.18854571091714">
        <ele>311.1232778397971</ele>
      </trkpt>
      <trkpt lat="22.25987057591861" lon="114.18848077623733">
        <ele>312.9418928717496</ele>
      </trkpt>
      <trkpt lat="22.259852085012866" lon="114.18842083653283">
        <ele>314.29727753616777</ele>
      </trkpt>
      <trkpt lat="22.259847462286032" lon="114.18834091692497">
        <ele>316.54178729622674</ele>
      </trkpt>
      <trkpt lat="22.259884444096286" lon="114.18830595209738">
        <ele>318.0299525202108</ele>
      </trkpt>
      <trkpt lat="22.259893689547326" lon="114.18823602244214">
        <ele>320.2179718023399</ele>
      </trkpt>
      <trkpt lat="22.259833594100613" lon="114.1878613992917">
        <ele>331.6842306261533</ele>
      </trkpt>
      <trkpt lat="22.259838216827873" lon="114.18773652490546">
        <ele>335.6880739195678</ele>
      </trkpt>
      <trkpt lat="22.259846761285985" lon="114.18764212533563">
        <ele>338.6326278338546</ele>
      </trkpt>
      <trkpt lat="22.259925347622328" lon="114.18764212533563">
        <ele>338.0357593426565</ele>
      </trkpt>
      <trkpt lat="22.259994688469916" lon="114.18760716050798">
        <ele>337.8996832428624</ele>
      </trkpt>
      <trkpt lat="22.259911479448675" lon="114.18755721075235">
        <ele>340.36420405368955</ele>
      </trkpt>
      <trkpt lat="22.259874497645583" lon="114.1874972710479">
        <ele>342.61171250207724</ele>
      </trkpt>
      <trkpt lat="22.25985600673951" lon="114.18744232631877">
        <ele>344.20481594712714</ele>
      </trkpt>
      <trkpt lat="22.259832893104544" lon="114.18739237656501">
        <ele>345.62071258482734</ele>
      </trkpt>
      <trkpt lat="22.2598005340092" lon="114.18732244690977">
        <ele>347.89075081093694</ele>
      </trkpt>
      <trkpt lat="22.259772797635833" lon="114.18725751222803">
        <ele>350.2575330131407</ele>
      </trkpt>
      <trkpt lat="22.2597543067172" lon="114.18718258759736">
        <ele>352.80040147201385</ele>
      </trkpt>
      <trkpt lat="22.25972657033374" lon="114.18710766296681">
        <ele>355.8425015016582</ele>
      </trkpt>
      <trkpt lat="22.259694211213812" lon="114.18706270818848">
        <ele>357.93250724578803</ele>
      </trkpt>
      <trkpt lat="22.259671097552143" lon="114.18699777350861">
        <ele>360.4854462072601</ele>
      </trkpt>
      <trkpt lat="22.259671097552143" lon="114.18693283882686">
        <ele>363.07896012467023</ele>
      </trkpt>
      <trkpt lat="22.259684965749614" lon="114.18688788404847">
        <ele>365.10958233738813</ele>
      </trkpt>
      <trkpt lat="22.259684965749614" lon="114.18683293931934">
        <ele>367.92637074425886</ele>
      </trkpt>
      <trkpt lat="22.259666474819383" lon="114.18679297951633">
        <ele>370.2586347743973</ele>
      </trkpt>
      <trkpt lat="22.259647983886666" lon="114.18672804483657">
        <ele>374.23407807060494</ele>
      </trkpt>
      <trkpt lat="22.259634115685557" lon="114.18664313025329">
        <ele>380.0577972475995</ele>
      </trkpt>
      <trkpt lat="22.259629492951518" lon="114.18658319054879">
        <ele>384.0817946312647</ele>
      </trkpt>
      <trkpt lat="22.259647983886666" lon="114.18652824581966">
        <ele>387.42096861063123</ele>
      </trkpt>
      <trkpt lat="22.25966185208641" lon="114.1864533211891">
        <ele>392.2999133072132</ele>
      </trkpt>
      <trkpt lat="22.259657658354044" lon="114.18638554389162">
        <ele>396.91922916030336</ele>
      </trkpt>
      <trkpt lat="22.259643790153874" lon="114.18629063935953">
        <ele>402.86894547686353</ele>
      </trkpt>
      <trkpt lat="22.259611431014832" lon="114.18622570467966">
        <ele>407.2029238928476</ele>
      </trkpt>
      <trkpt lat="22.259643790153874" lon="114.18617075995053">
        <ele>408.99738543020806</ele>
      </trkpt>
      <trkpt lat="22.259666903820033" lon="114.18612081019495">
        <ele>410.68392285465956</ele>
      </trkpt>
      <trkpt lat="22.259657658354044" lon="114.1860259056628">
        <ele>414.24524740038777</ele>
      </trkpt>
      <trkpt lat="22.259715765008877" lon="114.18600632050538">
        <ele>413.2750075486579</ele>
      </trkpt>
      <trkpt lat="22.259715765008877" lon="114.18600632050538">
        <ele>413.2750075486579</ele>
      </trkpt>
      <trkpt lat="22.25981746506008" lon="114.1859863406039">
        <ele>407.47528765170296</ele>
      </trkpt>
      <trkpt lat="22.259835955970402" lon="114.18592140592403">
        <ele>408.00012201822943</ele>
      </trkpt>
      <trkpt lat="22.259845201424625" lon="114.18584148631805">
        <ele>408.98032919972366</ele>
      </trkpt>
      <trkpt lat="22.25985444687828" lon="114.18577155666287">
        <ele>409.43652132817084</ele>
      </trkpt>
      <trkpt lat="22.25985444687828" lon="114.18570162700576">
        <ele>410.3553195893603</ele>
      </trkpt>
      <trkpt lat="22.259849824151544" lon="114.18563669232589">
        <ele>411.11745667065924</ele>
      </trkpt>
      <trkpt lat="22.25982208778791" lon="114.18559173754755">
        <ele>412.8497562377423</ele>
      </trkpt>
      <trkpt lat="22.259775860502984" lon="114.18556176769528">
        <ele>415.2663631919302</ele>
      </trkpt>
      <trkpt lat="22.259660292223245" lon="114.18553179784249">
        <ele>418.76415112135857</ele>
      </trkpt>
      <trkpt lat="22.259600196679543" lon="114.18555177774397">
        <ele>419.5777298461746</ele>
      </trkpt>
      <trkpt lat="22.259512364685918" lon="114.18554178779328">
        <ele>419.0229827822992</ele>
      </trkpt>
      <trkpt lat="22.259456891818544" lon="114.18556676267013">
        <ele>417.82348722148697</ele>
      </trkpt>
      <trkpt lat="22.259447646338657" lon="114.18566166720217">
        <ele>418.2379568756218</ele>
      </trkpt>
      <trkpt lat="22.259461514558268" lon="114.18573659183278">
        <ele>418.80375291378004</ele>
      </trkpt>
      <trkpt lat="22.259516987423808" lon="114.18577655163773">
        <ele>420.0258622249821</ele>
      </trkpt>
      <trkpt lat="22.259572460266455" lon="114.18582150641606">
        <ele>420.0978936113603</ele>
      </trkpt>
    </trkseg>
  </trk>
</gpx>
